IRIDIUM 144             
1 43249U 18030A   24023.77522338  .00000052  00000+0  11652-4 0  9997
2 43249  86.3975 296.2710 0001931  83.8921 276.2494 14.34217421304666
IRIDIUM 149             
1 43250U 18030B   24023.85133422  .00000233  00000+0  76132-4 0  9995
2 43250  86.3973 296.2160 0001878  89.4824 270.6587 14.34217332304694
IRIDIUM 157             
1 43251U 18030C   24023.66104527  .00000578  00000+0  19940-3 0  9994
2 43251  86.3975 296.3292 0002335  85.2601 274.8862 14.34223881304643
IRIDIUM 140             
1 43252U 18030D   24023.81962110  .00000111  00000+0  32649-4 0  9997
2 43252  86.3975 296.2775 0001704  82.9223 277.2166 14.34217352304721
IRIDIUM 145             
1 43253U 18030E   24023.80693672  .00000193  00000+0  61769-4 0  9996
2 43253  86.3974 296.2569 0001792  89.4227 270.7174 14.34218019304655
IRIDIUM 146             
1 43254U 18030F   24023.78790891  .00000276  00000+0  91350-4 0  9996
2 43254  86.3975 296.2798 0001794  90.7677 269.3724 14.34218235304663
IRIDIUM 148             
1 43255U 18030G   24023.68641674  .00000543  00000+0  18674-3 0  9994
2 43255  86.3976 296.3524 0002131  93.7441 266.3998 14.34217505304682
IRIDIUM 142             
1 43256U 18030H   24023.79424819  .00000493  00000+0  16890-3 0  9999
2 43256  86.3972 296.2281 0001868  90.4334 269.7076 14.34217701304669
